OBJECT_NAME,OBJECT_ID,EPOCH,MEAN_MOTION,ECCENTRICITY,INCLINATION,RA_OF_ASC_NODE,ARG_OF_PERICENTER,MEAN_ANOMALY,EPHEMERIS_TYPE,CLASSIFICATION_TYPE,NORAD_CAT_ID,ELEMENT_SET_NO,REV_AT_EPOCH,BSTAR,MEAN_MOTION_DOT,MEAN_MOTION_DDOT
SPACEMOBILE-004,2024-163E,2026-07-15T14:55:07.061664,15.20780797,.00065792,52.9675,178.1586,225.4338,134.6120,0,U,61049,999,10209,.55840965E-3,.1216E-3,0
CZ-8A R/B,2025-231K,2026-07-16T14:36:57.666528,14.30162420,.01165729,50.0040,274.1439,327.5851,31.7941,0,U,66004,999,3915,.46054128E-4,-.35E-6,0
SZ-21 MODULE,2025-246C,2026-07-15T22:54:47.331072,15.78866927,.00085922,41.4721,127.8201,225.8060,134.2080,0,U,66515,999,3828,.19466374E-3,.35292E-3,0
SPACEMOBILE-006,2025-309A,2026-07-16T09:29:27.796704,15.18656625,.00099908,52.9935,197.8358,219.1469,140.8802,0,U,67232,999,3103,.58828308E-4,.913E-5,0
SPACEMOBILE-008,2026-139A,2026-07-16T05:02:13.898976,15.12802700,.00051087,52.9949,130.8006,58.8976,301.2516,0,U,69589,999,437,.24227769E-4,.129E-5,0
SPACEMOBILE-009,2026-139B,2026-07-16T01:54:52.706016,15.12696048,.00053337,52.9940,131.4074,54.4529,305.6959,0,U,69590,999,435,.26252336E-4,.164E-5,0
SPACEMOBILE-010,2026-139C,2026-07-16T13:05:33.716832,15.12529797,.00052946,52.9947,129.3313,47.6592,312.4847,0,U,69591,999,443,.41586526E-4,.432E-5,0
